IRIDIUM 136             
1 42962U 17061H   24051.42650809  .00000379  00000+0  12834-3 0  9993
2 42962  86.3992  19.5154 0002052  80.6354 279.5074 14.34217606333324
